{"fetched_at":"2026-07-18T17:29:29.751Z","source":"https://celestrak.org/NORAD/elements/gp.php?GROUP=kuiper&FORMAT=JSON","constellation":"kuiper","records":[{"OBJECT_NAME":"KUIPER-00607","OBJECT_ID":"2026-118Z","EPOCH":"2026-07-18T04:40:00.639840","CLASSIFICATION_TYPE":"U","MEAN_MOTION":15.38024826,"ECCENTRICITY":0.00043401,"INCLINATION":51.866,"RA_OF_ASC_NODE":263.2342,"ARG_OF_PERICENTER":290.9892,"MEAN_ANOMALY":69.063,"EPHEMERIS_TYPE":0,"NORAD_CAT_ID":69290,"ELEMENT_SET_NO":999,"REV_AT_EPOCH":875,"BSTAR":0.00055949577,"MEAN_MOTION_DOT":0.00020931,"MEAN_MOTION_DDOT":0},{"OBJECT_NAME":"KUIPER-00608","OBJECT_ID":"2026-118AA","EPOCH":"2026-07-18T05:05:43.287648","CLASSIFICATION_TYPE":"U","MEAN_MOTION":15.33855314,"ECCENTRICITY":0.00088769,"INCLINATION":51.8586,"RA_OF_ASC_NODE":264.0488,"ARG_OF_PERICENTER":310.4906,"MEAN_ANOMALY":49.5304,"EPHEMERIS_TYPE":0,"NORAD_CAT_ID":69291,"ELEMENT_SET_NO":999,"REV_AT_EPOCH":874,"BSTAR":0.00028616626,"MEAN_MOTION_DOT":0.00009155,"MEAN_MOTION_DDOT":0},{"OBJECT_NAME":"KUIPER-00610","OBJECT_ID":"2026-118AB","EPOCH":"2026-07-18T04:02:41.589888","CLASSIFICATION_TYPE":"U","MEAN_MOTION":15.38377148,"ECCENTRICITY":0.00012234,"INCLINATION":51.8715,"RA_OF_ASC_NODE":263.0775,"ARG_OF_PERICENTER":327.0992,"MEAN_ANOMALY":32.9919,"EPHEMERIS_TYPE":0,"NORAD_CAT_ID":69292,"ELEMENT_SET_NO":999,"REV_AT_EPOCH":875,"BSTAR":0.00034358878,"MEAN_MOTION_DOT":0.00012835,"MEAN_MOTION_DDOT":0},{"OBJECT_NAME":"KUIPER-00613","OBJECT_ID":"2026-118AC","EPOCH":"2026-07-18T06:00:02.000160","CLASSIFICATION_TYPE":"U","MEAN_MOTION":14.9565894,"ECCENTRICITY":0.0010652,"INCLINATION":51.8923,"RA_OF_ASC_NODE":266.3258,"ARG_OF_PERICENTER":307.6383,"MEAN_ANOMALY":140.7762,"EPHEMERIS_TYPE":0,"NORAD_CAT_ID":69293,"ELEMENT_SET_NO":999,"REV_AT_EPOCH":582,"BSTAR":-0.004405613,"MEAN_MOTION_DOT":-0.00049476,"MEAN_MOTION_DDOT":0},{"OBJECT_NAME":"KUIPER-00618","OBJECT_ID":"2026-118AD","EPOCH":"2026-07-18T04:19:30.375552","CLASSIFICATION_TYPE":"U","MEAN_MOTION":15.37604769,"ECCENTRICITY":0.00012018,"INCLINATION":51.873,"RA_OF_ASC_NODE":263.152,"ARG_OF_PERICENTER":312.4621,"MEAN_ANOMALY":47.6264,"EPHEMERIS_TYPE":0,"NORAD_CAT_ID":69294,"ELEMENT_SET_NO":999,"REV_AT_EPOCH":875,"BSTAR":0.00034989955,"MEAN_MOTION_DOT":0.00012747,"MEAN_MOTION_DDOT":0},{"OBJECT_NAME":"KUIPER-00620","OBJECT_ID":"2026-118AE","EPOCH":"2026-07-17T21:47:22.108992","CLASSIFICATION_TYPE":"U","MEAN_MOTION":15.38814564,"ECCENTRICITY":0.00009741,"INCLINATION":51.8694,"RA_OF_ASC_NODE":264.3285,"ARG_OF_PERICENTER":278.0495,"MEAN_ANOMALY":82.0382,"EPHEMERIS_TYPE":0,"NORAD_CAT_ID":69295,"ELEMENT_SET_NO":999,"REV_AT_EPOCH":871,"BSTAR":0.0003422085,"MEAN_MOTION_DOT":0.0001297,"MEAN_MOTION_DDOT":0},{"OBJECT_NAME":"KUIPER-00423","OBJECT_ID":"2026-140A","EPOCH":"2026-07-18T04:05:25.225440","CLASSIFICATION_TYPE":"U","MEAN_MOTION":15.3860047,"ECCENTRICITY":0.00130472,"INCLINATION":51.8781,"RA_OF_ASC_NODE":248.6422,"ARG_OF_PERICENTER":278.7011,"MEAN_ANOMALY":81.2498,"EPHEMERIS_TYPE":0,"NORAD_CAT_ID":69592,"ELEMENT_SET_NO":999,"REV_AT_EPOCH":600,"BSTAR":0.00055340709,"MEAN_MOTION_DOT":0.00021146,"MEAN_MOTION_DDOT":0},{"OBJECT_NAME":"KUIPER-00428","OBJECT_ID":"2026-140B","EPOCH":"2026-07-16T12:31:04.800576","CLASSIFICATION_TYPE":"U","MEAN_MOTION":15.3696893,"ECCENTRICITY":0.0007621,"INCLINATION":51.8788,"RA_OF_ASC_NODE":257.0785,"ARG_OF_PERICENTER":36.6922,"MEAN_ANOMALY":323.4585,"EPHEMERIS_TYPE":0,"NORAD_CAT_ID":69593,"ELEMENT_SET_NO":999,"REV_AT_EPOCH":574,"BSTAR":0.00031057,"MEAN_MOTION_DOT":0.00011038,"MEAN_MOTION_DDOT":0},{"OBJECT_NAME":"KUIPER-00481","OBJECT_ID":"2026-140C","EPOCH":"2026-07-17T12:47:22.523712","CLASSIFICATION_TYPE":"U","MEAN_MOTION":15.3806205,"ECCENTRICITY":0.0010913,"INCLINATION":51.8774,"RA_OF_ASC_NODE":251.8581,"ARG_OF_PERICENTER":290.2348,"MEAN_ANOMALY":69.7466,"EPHEMERIS_TYPE":0,"NORAD_CAT_ID":69594,"ELEMENT_SET_NO":999,"REV_AT_EPOCH":590,"BSTAR":0.00030168,"MEAN_MOTION_DOT":0.00011117,"MEAN_MOTION_DDOT":0},{"OBJECT_NAME":"KUIPER-00490","OBJECT_ID":"2026-140D","EPOCH":"2026-07-17T11:28:00.990336","CLASSIFICATION_TYPE":"U","MEAN_MOTION":15.37993917,"ECCENTRICITY":0.0006782,"INCLINATION":51.8766,"RA_OF_ASC_NODE":252.2321,"ARG_OF_PERICENTER":348.7143,"MEAN_ANOMALY":11.3691,"EPHEMERIS_TYPE":0,"NORAD_CAT_ID":69595,"ELEMENT_SET_NO":999,"REV_AT_EPOCH":589,"BSTAR":0.00030647,"MEAN_MOTION_DOT":0.00011263,"MEAN_MOTION_DDOT":0},{"OBJECT_NAME":"KUIPER-00493","OBJECT_ID":"2026-140E","EPOCH":"2026-07-18T05:15:47.126016","CLASSIFICATION_TYPE":"U","MEAN_MOTION":15.34504459,"ECCENTRICITY":0.00082152,"INCLINATION":51.8786,"RA_OF_ASC_NODE":248.9573,"ARG_OF_PERICENTER":42.2858,"MEAN_ANOMALY":317.876,"EPHEMERIS_TYPE":0,"NORAD_CAT_ID":69596,"ELEMENT_SET_NO":999,"REV_AT_EPOCH":600,"BSTAR":-0.015018135,"MEAN_MOTION_DOT":-0.00479723,"MEAN_MOTION_DDOT":0},{"OBJECT_NAME":"KUIPER-00496","OBJECT_ID":"2026-140F","EPOCH":"2026-07-18T04:21:56.064096","CLASSIFICATION_TYPE":"U","MEAN_MOTION":15.34142001,"ECCENTRICITY":0.00106018,"INCLINATION":51.8775,"RA_OF_ASC_NODE":249.4403,"ARG_OF_PERICENTER":60.612,"MEAN_ANOMALY":299.5923,"EPHEMERIS_TYPE":0,"NORAD_CAT_ID":69597,"ELEMENT_SET_NO":999,"REV_AT_EPOCH":599,"BSTAR":0.00027467614,"MEAN_MOTION_DOT":0.00008857,"MEAN_MOTION_DDOT":0},{"OBJECT_NAME":"KUIPER-00513","OBJECT_ID":"2026-140G","EPOCH":"2026-07-17T03:35:05.595648","CLASSIFICATION_TYPE":"U","MEAN_MOTION":15.38190705,"ECCENTRICITY":0.00073512,"INCLINATION":51.8795,"RA_OF_ASC_NODE":253.7949,"ARG_OF_PERICENTER":346.2552,"MEAN_ANOMALY":13.8234,"EPHEMERIS_TYPE":0,"NORAD_CAT_ID":69598,"ELEMENT_SET_NO":999,"REV_AT_EPOCH":584,"BSTAR":0.00038985765,"MEAN_MOTION_DOT":0.00014538,"MEAN_MOTION_DDOT":0},{"OBJECT_NAME":"KUIPER-00516","OBJECT_ID":"2026-140H","EPOCH":"2026-07-17T03:48:04.325760","CLASSIFICATION_TYPE":"U","MEAN_MOTION":15.37626162,"ECCENTRICITY":0.00070293,"INCLINATION":51.8776,"RA_OF_ASC_NODE":253.8435,"ARG_OF_PERICENTER":2.7166,"MEAN_ANOMALY":357.3858,"EPHEMERIS_TYPE":0,"NORAD_CAT_ID":69599,"ELEMENT_SET_NO":999,"REV_AT_EPOCH":584,"BSTAR":0.00044019357,"MEAN_MOTION_DOT":0.00016165,"MEAN_MOTION_DDOT":0},{"OBJECT_NAME":"KUIPER-00517","OBJECT_ID":"2026-140J","EPOCH":"2026-07-18T04:08:28.486752","CLASSIFICATION_TYPE":"U","MEAN_MOTION":15.38807034,"ECCENTRICITY":0.00102855,"INCLINATION":51.8751,"RA_OF_ASC_NODE":248.6465,"ARG_OF_PERICENTER":308.7145,"MEAN_ANOMALY":51.2922,"EPHEMERIS_TYPE":0,"NORAD_CAT_ID":69600,"ELEMENT_SET_NO":999,"REV_AT_EPOCH":600,"BSTAR":0.00049031671,"MEAN_MOTION_DOT":0.00018792,"MEAN_MOTION_DDOT":0},{"OBJECT_NAME":"KUIPER-00520","OBJECT_ID":"2026-140K","EPOCH":"2026-07-17T13:10:45.606144","CLASSIFICATION_TYPE":"U","MEAN_MOTION":15.37687402,"ECCENTRICITY":0.0006983,"INCLINATION":51.8811,"RA_OF_ASC_NODE":251.9731,"ARG_OF_PERICENTER":7.9072,"MEAN_ANOMALY":352.2023,"EPHEMERIS_TYPE":0,"NORAD_CAT_ID":69601,"ELEMENT_SET_NO":999,"REV_AT_EPOCH":590,"BSTAR":0.00043303,"MEAN_MOTION_DOT":0.00015927,"MEAN_MOTION_DDOT":0},{"OBJECT_NAME":"KUIPER-00522","OBJECT_ID":"2026-140L","EPOCH":"2026-07-16T13:06:00.641664","CLASSIFICATION_TYPE":"U","MEAN_MOTION":15.38614832,"ECCENTRICITY":0.0013125,"INCLINATION":51.8765,"RA_OF_ASC_NODE":256.4972,"ARG_OF_PERICENTER":273.5705,"MEAN_ANOMALY":86.3781,"EPHEMERIS_TYPE":0,"NORAD_CAT_ID":69602,"ELEMENT_SET_NO":999,"REV_AT_EPOCH":575,"BSTAR":0.00037748,"MEAN_MOTION_DOT":0.00014289,"MEAN_MOTION_DDOT":0},{"OBJECT_NAME":"KUIPER-00528","OBJECT_ID":"2026-140M","EPOCH":"2026-07-16T13:50:59.851968","CLASSIFICATION_TYPE":"U","MEAN_MOTION":15.3752121,"ECCENTRICITY":0.0005937,"INCLINATION":51.8776,"RA_OF_ASC_NODE":256.6977,"ARG_OF_PERICENTER":4.3015,"MEAN_ANOMALY":355.8022,"EPHEMERIS_TYPE":0,"NORAD_CAT_ID":69603,"ELEMENT_SET_NO":999,"REV_AT_EPOCH":575,"BSTAR":0.00041531,"MEAN_MOTION_DOT":0.00015171,"MEAN_MOTION_DDOT":0},{"OBJECT_NAME":"KUIPER-00532","OBJECT_ID":"2026-140N","EPOCH":"2026-07-17T13:33:17.124192","CLASSIFICATION_TYPE":"U","MEAN_MOTION":15.36593077,"ECCENTRICITY":0.0005252,"INCLINATION":51.8772,"RA_OF_ASC_NODE":252.0635,"ARG_OF_PERICENTER":40.3376,"MEAN_ANOMALY":319.7999,"EPHEMERIS_TYPE":0,"NORAD_CAT_ID":69604,"ELEMENT_SET_NO":999,"REV_AT_EPOCH":590,"BSTAR":0.00037928,"MEAN_MOTION_DOT":0.000134,"MEAN_MOTION_DDOT":0},{"OBJECT_NAME":"KUIPER-00533","OBJECT_ID":"2026-140P","EPOCH":"2026-07-17T11:16:54.376320","CLASSIFICATION_TYPE":"U","MEAN_MOTION":15.38310764,"ECCENTRICITY":0.0007722,"INCLINATION":51.877,"RA_OF_ASC_NODE":252.1844,"ARG_OF_PERICENTER":334.6511,"MEAN_ANOMALY":25.4096,"EPHEMERIS_TYPE":0,"NORAD_CAT_ID":69605,"ELEMENT_SET_NO":999,"REV_AT_EPOCH":589,"BSTAR":0.00033123,"MEAN_MOTION_DOT":0.00012339,"MEAN_MOTION_DDOT":0},{"OBJECT_NAME":"KUIPER-00534","OBJECT_ID":"2026-140Q","EPOCH":"2026-07-18T03:56:30.843168","CLASSIFICATION_TYPE":"U","MEAN_MOTION":15.38769624,"ECCENTRICITY":0.00131403,"INCLINATION":51.8802,"RA_OF_ASC_NODE":248.6055,"ARG_OF_PERICENTER":278.9012,"MEAN_ANOMALY":81.0488,"EPHEMERIS_TYPE":0,"NORAD_CAT_ID":69606,"ELEMENT_SET_NO":999,"REV_AT_EPOCH":600,"BSTAR":0.0003747824,"MEAN_MOTION_DOT":0.00014257,"MEAN_MOTION_DDOT":0},{"OBJECT_NAME":"KUIPER-00537","OBJECT_ID":"2026-140R","EPOCH":"2026-07-17T12:39:42.848064","CLASSIFICATION_TYPE":"U","MEAN_MOTION":15.34117941,"ECCENTRICITY":0.0010666,"INCLINATION":51.8783,"RA_OF_ASC_NODE":252.5651,"ARG_OF_PERICENTER":62.7872,"MEAN_ANOMALY":297.42,"EPHEMERIS_TYPE":0,"NORAD_CAT_ID":69607,"ELEMENT_SET_NO":999,"REV_AT_EPOCH":589,"BSTAR":0.00037047,"MEAN_MOTION_DOT":0.00012076,"MEAN_MOTION_DDOT":0},{"OBJECT_NAME":"KUIPER-00538","OBJECT_ID":"2026-140S","EPOCH":"2026-07-17T03:45:30.267648","CLASSIFICATION_TYPE":"U","MEAN_MOTION":15.37766687,"ECCENTRICITY":0.0006734,"INCLINATION":51.8789,"RA_OF_ASC_NODE":253.8397,"ARG_OF_PERICENTER":350.5658,"MEAN_ANOMALY":9.5202,"EPHEMERIS_TYPE":0,"NORAD_CAT_ID":69608,"ELEMENT_SET_NO":999,"REV_AT_EPOCH":584,"BSTAR":0.00038887768,"MEAN_MOTION_DOT":0.00014296,"MEAN_MOTION_DDOT":0}]}
